[{"OBJECT_NAME":"YUNHAI-3 01","OBJECT_ID":"2022-151A","EPOCH":"2026-03-09T23:02:06.865152","MEAN_MOTION":14.13435801,"ECCENTRICITY":0.00017147,"INCLINATION":98.8209,"RA_OF_ASC_NODE":77.7687,"ARG_OF_PERICENTER":54.4546,"MEAN_ANOMALY":305.6786,"EPHEMERIS_TYPE":0,"CLASSIFICATION_TYPE":"U","NORAD_CAT_ID":54235,"ELEMENT_SET_NO":999,"REV_AT_EPOCH":17092,"BSTAR":4.7399629e-5,"MEAN_MOTION_DOT":4.5e-7,"MEAN_MOTION_DDOT":0},{"OBJECT_NAME":"FENGYUN 1C DEB","OBJECT_ID":"1999-025DKP","EPOCH":"2026-03-06T16:37:38.244864","MEAN_MOTION":14.11120416,"ECCENTRICITY":0.002126,"INCLINATION":99.4555,"RA_OF_ASC_NODE":153.7804,"ARG_OF_PERICENTER":351.3864,"MEAN_ANOMALY":8.6938,"EPHEMERIS_TYPE":0,"CLASSIFICATION_TYPE":"U","NORAD_CAT_ID":35111,"ELEMENT_SET_NO":999,"REV_AT_EPOCH":65328,"BSTAR":0.00048682778,"MEAN_MOTION_DOT":8.3e-6,"MEAN_MOTION_DDOT":0}]
